OBJECT A                
1 60745U 24153A   24328.14732896  .00017843  00000+0  10066-2 0  9993
2 60745  97.6226  85.3634 0014454 354.1836   5.9225 15.13132057 12984
